YAOGAN-43 01G           
1 60464U 24148G   26068.44348481  .00010133  00000+0  35873-3 0  9993
2 60464  35.0006  62.0013 0007382 306.3543  53.6492 15.28332833 87004
STARLINK-35093          
1 65478U 25195W   26068.80875593  .00027981  00000+0  95479-3 0  9992
2 65478  53.1575 257.4995 0001079  68.3381 291.7734 15.30149473 29994
